EUTELSAT QUANTUM        
1 49056U 21069B   25337.85252911  .00000143  00000+0  00000+0 0  9991
2 49056   0.0193  19.8890 0003800 246.5875 161.0800  1.00271917 15967
EUTELSAT KONNECT VHTS   
1 53765U 22110A   25337.21699630  .00000036  00000+0  00000+0 0  9995
2 53765   0.0603 107.1016 0002764 123.1613 282.8564  1.00269007  4867
EUTELSAT HOTBIRD 13F    
1 54048U 22134A   25336.83169501  .00000107  00000+0  00000+0 0  9991
2 54048   0.0542 289.0481 0001917  66.1354  29.1621  1.00271371 11408
EUTELSAT 10B            
1 54259U 22157A   25337.19003163  .00000087  00000+0  00000+0 0  9998
2 54259   0.0608 103.5780 0001038  72.8343 334.2971  1.00268425 11069
EUTELSAT 36D            
1 59346U 24059A   25337.58030921  .00000000  00000+0  00000+0 0  9993
2 59346   0.0224 345.8589 0000659 317.7492  13.8207  1.00270882  6186
